STARLINK-31597          
1 59464U 24068K   26068.30533245 -.00000273  00000+0 -40808-6 0  9994
2 59464  43.0054  36.7110 0001151 266.8565  93.2155 15.27578443108415
TANSTAAFL-2             
1 62378U 24247B   26067.20753490  .00013897  00000+0  50872-3 0  9998
2 62378  44.9880 125.0934 0003072 298.8909  61.1666 15.28016845 67506
